[{"OBJECT_NAME":"STARLINK-30954","OBJECT_ID":"2023-180F","EPOCH":"2026-03-09T00:16:29.178048","MEAN_MOTION":15.26752569,"ECCENTRICITY":7.925e-5,"INCLINATION":42.9992,"RA_OF_ASC_NODE":56.2501,"ARG_OF_PERICENTER":248.5691,"MEAN_ANOMALY":111.5076,"EPHEMERIS_TYPE":0,"CLASSIFICATION_TYPE":"U","NORAD_CAT_ID":58407,"ELEMENT_SET_NO":999,"REV_AT_EPOCH":12752,"BSTAR":5.8271801e-5,"MEAN_MOTION_DOT":1.304e-5,"MEAN_MOTION_DDOT":0},{"OBJECT_NAME":"FLOCK 4G-26","OBJECT_ID":"2025-009AA","EPOCH":"2026-03-09T19:19:02.910720","MEAN_MOTION":15.27281631,"ECCENTRICITY":0.0001988,"INCLINATION":97.4054,"RA_OF_ASC_NODE":151.3913,"ARG_OF_PERICENTER":299.1273,"MEAN_ANOMALY":60.9767,"EPHEMERIS_TYPE":0,"CLASSIFICATION_TYPE":"U","NORAD_CAT_ID":62633,"ELEMENT_SET_NO":999,"REV_AT_EPOCH":6373,"BSTAR":0.00042468806,"MEAN_MOTION_DOT":0.00011283,"MEAN_MOTION_DDOT":0}]
